STARLINK-31075          
1 58594U 23200F   26067.35981993  .00000279  00000+0  20095-4 0  9993
2 58594  43.0013 175.8265 0001718 190.3160 169.7657 15.26747945123417
TEVEL2-9                
1 63237U 25052AD  26068.70229538  .00018694  00000+0  67240-3 0  9992
2 63237  97.4057 324.3929 0007990 124.2475 235.9522 15.28633834 54816
